INTERCOSMOS 24          
1 20261U 89080A   25199.20193280  .00000556  00000+0  15410-3 0  9996
2 20261  82.6036 256.8851 1191350 116.7756 256.0162 12.59085520636875
SL-14 R/B               
1 20262U 89080C   25198.47007581  .00000123  00000+0  32551-4 0  9999
2 20262  82.5959 324.2347 1230924   2.4447 358.1953 12.50317636630321
DELTA 1 R/B             
1 20323U 89089B   25199.22056384  .00000175  00000+0  52116-4 0  9991
2 20323  97.1003  78.6705 0070188 142.2588 218.3563 14.50414335882274
ARIANE 40 R/B           
1 20443U 90005H   25199.19422163  .00000175  00000+0  69539-4 0  9999
2 20443  98.3444 261.3717 0010116 183.2185 176.8940 14.39655932859320
DELTA 2 R/B(1)          
1 20453U 90008B   25199.18596562  .00022199  00000+0  48144-3 0  9995
2 20453  35.6086 244.7682 0135843 280.2749  78.2689 15.34186570889884
COSMOS 2058             
1 20465U 90010A   25198.61919917  .00002508  00000+0  15660-3 0  9990
2 20465  82.4751 278.4861 0009283  72.8604 287.3641 15.09040618906764
SL-14 R/B               
1 20466U 90010B   25199.21960891  .00000373  00000+0  42555-4 0  9997
2 20466  82.5038 127.5570 0019825 357.3647   2.7459 14.83282827914784
SL-14 R/B               
1 20511U 90018B   25199.14745930  .00000281  00000+0  32454-4 0  9998
2 20511  82.5207  82.2889 0017317 139.8443 220.4054 14.81865548908939
HST                     
1 20580U 90037B   25198.27105692  .00003718  00000+0  13415-3 0  9996
2 20580  28.4667 200.9564 0002209  71.8388 288.2447 15.25574939737545
SL-16 R/B               
1 20625U 90046B   25198.07774350 -.00000280  00000+0 -11961-3 0  9994
2 20625  70.9991  72.7233 0016260 298.3181  61.6301 14.14969028815064
COSMOS 2084             
1 20663U 90055A   25199.06738390  .00001832  00000+0  14304-3 0  9996
2 20663  62.7895  54.6599 0056371 157.7296 202.6271 15.03806057901020
SL-6 R/B(2)             
1 20666U 90055D   25198.75709470  .00001523  00000+0  12968-3 0  9992
2 20666  62.7842 331.8269 0021718 199.9184 160.1069 15.02133942902883
SL-8 R/B                
1 20775U 90078B   25199.21772016  .00014258  00000+0  46304-3 0  9996
2 20775  82.9073 100.5324 0401166  77.0337 287.5347 14.79056552774516
SL-8 R/B                
1 21088U 91006B   25198.49770855  .00000115  00000+0  10050-3 0  9990
2 21088  82.9441 345.0035 0021847 337.2584  85.3758 13.77464549731695
OKEAN-3                 
1 21397U 91039A   25199.06103994  .00001658  00000+0  12123-3 0  9993
2 21397  82.5159 203.8135 0016103  54.6400 305.6328 15.02895864850857
COSMOS 2151             
1 21422U 91042A   25198.85930805  .00001561  00000+0  12668-3 0  9998
2 21422  82.4987 309.9266 0013786 129.4214 230.8232 14.98937816828008
SL-14 R/B               
1 21423U 91042B   25199.15210909  .00000257  00000+0  29707-4 0  9993
2 21423  82.4923  80.0980 0015666 294.2236  65.7340 14.81564462839386
ERS-1                   
1 21574U 91050A   25199.00923563  .00000198  00000+0  78393-4 0  9999
2 21574  98.7918 206.3119 0032111 176.2443 183.8991 14.39214314781951
ARIANE 40 R/B           
1 21610U 91050F   25199.13238633  .00000206  00000+0  74673-4 0  9998
2 21610  98.2376 254.7055 0004334  74.2858 285.8810 14.42655863785447
INTERCOSMOS 25          
1 21819U 91086A   25198.13753667  .00000529  00000+0  10569-3 0  9997
2 21819  82.6054  92.3518 1489226 264.4256  78.5770 12.11116622468169
SL-8 R/B                
1 21876U 92008B   25198.19980731  .00000083  00000+0  69031-4 0  9999
2 21876  82.9259  82.9177 0036101  72.9649  44.8225 13.75936726677030
SL-8 R/B                
1 21938U 92020B   25198.45037097  .00000100  00000+0  88387-4 0  9994
2 21938  82.9327 328.4639 0028013 232.7422 191.3569 13.75515434668795
USA 81                  
1 21949U 92023A   25199.20663512  .00000116  00000+0  35807-4 0  9996
2 21949  85.0064 266.6814 0002718  84.0427 276.1075 14.32253290 61226
COSMOS 2219             
1 22219U 92076A   25199.23142027 -.00000022  00000+0  13344-4 0  9990
2 22219  71.0611 148.1728 0018821 205.6321 154.3871 14.14038264685566
SL-16 R/B               
1 22220U 92076B   25198.75565110  .00000068  00000+0  57659-4 0  9996
2 22220  71.0018 323.2396 0010626  93.6739  65.3053 14.16811878688556
COSMOS 2221             
1 22236U 92080A   25199.19908323  .00001417  00000+0  12727-3 0  9999
2 22236  82.5060 143.4276 0012827 259.5112 100.4664 14.94972564766797
SL-16 R/B               
1 22285U 92093B   25199.18123968 -.00000250  00000+0 -10365-3 0  9992
2 22285  71.0218 136.5450 0006366 293.2113  66.8339 14.15400571680294
COSMOS 2228             
1 22286U 92094A   25198.89339993  .00001533  00000+0  13452-3 0  9991
2 22286  82.5184 101.8778 0019132  17.5624 342.6255 14.95822440740943
SL-16 R/B               
1 22566U 93016B   25198.49157708 -.00000257  00000+0 -10730-3 0  9995
2 22566  71.0089 349.1502 0011968 312.8315  47.1802 14.15263226668891
COSMOS 2242             
1 22626U 93024A   25199.18267690  .00001631  00000+0  14542-3 0  9990
2 22626  82.5207 130.7617 0017384  19.7134 340.4756 14.95271020745654
SL-16 R/B               
1 22803U 93059B   25199.21365626 -.00000168  00000+0 -59350-4 0  9990
2 22803  70.9903 145.5719 0018326 213.9950 146.0001 14.17181396646577
ARIANE 40 R/B           
1 22830U 93061H   25198.21491556  .00000131  00000+0  64153-4 0  9999
2 22830  98.5255 266.3013 0009552 259.5908 100.4200 14.32677140660634
COSMOS 2278             
1 23087U 94023A   25198.50580102 -.00000194  00000+0 -76820-4 0  9996
2 23087  71.0541 307.1203 0008050  13.8776 346.2566 14.14303101611559
SL-16 R/B               
1 23088U 94023B   25199.22661463 -.00000249  00000+0 -10424-3 0  9995
2 23088  70.9978 203.2626 0005688 284.5954  75.4538 14.14972085613191
SL-16 R/B               
1 23343U 94074B   25199.13575307  .00000313  00000+0  49035-4 0  9997
2 23343  97.7376 234.1333 0005154 263.6066 151.2038 14.79070041652780
SL-16 R/B               
1 23405U 94077B   25198.23964085 -.00000195  00000+0 -75248-4 0  9999
2 23405  70.9834 127.8161 0002883 213.7311 146.3628 14.15523566583185
ARIANE 40+ R/B          
1 23561U 95021B   25198.20883271  .00000201  00000+0  78359-4 0  9998
2 23561  98.4822 267.4537 0007853 122.8907 301.6023 14.39550437585585
SL-16 R/B               
1 23705U 95058B   25198.72963787 -.00000017  00000+0  15373-4 0  9999
2 23705  71.0223 313.5345 0010769 123.3295 236.8860 14.15450384534602
SL-16 R/B               
1 24298U 96051B   25198.47038402 -.00000183  00000+0 -72459-4 0  9993
2 24298  70.7671 313.0710 0013761 128.0826 232.1538 14.12407225488434
ORBVIEW 2 (SEASTAR)     
1 24883U 97037A   25198.99105815  .00000183  00000+0  79994-4 0  9997
2 24883  98.8298 352.4960 0002934  51.7593 308.3855 14.35269919475061
SL-16 R/B               
1 25400U 98043G   25198.74827075  .00000033  00000+0  32641-4 0  9995
2 25400  98.7886 145.9484 0009485 342.6156  17.4697 14.25978211405505
SL-16 R/B               
1 25407U 98045B   25198.71440840  .00000262  00000+0  15667-3 0  9994
2 25407  71.0128 315.7043 0006933   7.2285 352.8937 14.16146041393838
ISS (ZARYA)             
1 25544U 98067A   25199.20410805  .00007024  00000+0  13123-3 0  9991
2 25544  51.6336 153.3248 0002239  91.7860 268.3385 15.49935069519976
CZ-4B R/B               
1 25732U 99025C   25199.15852648  .00000025  00000+0  32988-4 0  9999
2 25732  98.6977 243.5394 0036125 300.0526 128.5539 14.18197958355065
OKEAN-O                 
1 25860U 99039A   25198.58975951  .00000465  00000+0  68700-4 0  9994
2 25860  97.9817 255.3990 0001667  73.1224 287.0170 14.79842841399707
SL-16 R/B               
1 25861U 99039B   25198.18955067  .00000379  00000+0  55527-4 0  9994
2 25861  98.0341 252.1451 0013720 304.2384  55.7528 14.81314165401995
DELTA 2 R/B             
1 25876U 99041E   25198.90390448  .00001959  00000+0  35537-3 0  9992
2 25876  51.7601 158.2984 0506944  15.9902 345.6390 14.10818054329894
HELIOS 1B               
1 25977U 99064A   25198.27994762  .00001020  00000+0  12170-3 0  9995
2 25977  98.1913  88.5503 0002481  98.0991 262.0506 14.86554649650276
TERRA                   
1 25994U 99068A   25199.19679138  .00000305  00000+0  71637-4 0  9996
2 25994  97.9962 256.1034 0002210 167.1841 260.2430 14.60734932360967
SL-16 R/B               
1 26070U 00006B   25198.45704536 -.00000233  00000+0 -93919-4 0  9994
2 26070  71.0005 232.4290 0016659 188.0088 172.0772 14.15780794315261
TITAN 4B R/B            
1 26474U 00047B   25198.89853693  .00002126  00000+0  14567-3 0  9996
2 26474  67.9912 339.5549 0047402 301.3282  58.3230 15.07355570357502
ENVISAT                 
1 27386U 02009A   25198.94566541  .00000072  00000+0  37122-4 0  9999
2 27386  98.3354 153.6487 0001348  84.0120  31.7898 14.38927999225483
IDEFIX & ARIANE 42P R/B 
1 27422U 02021B   25198.40692411  .00000177  00000+0  84044-4 0  9992
2 27422  98.5610 135.2109 0012203 154.8965 205.2813 14.30809137210375
AQUA                    
1 27424U 02022A   25199.15545454  .00000632  00000+0  13768-3 0  9992
2 27424  98.3794 157.8995 0000986  56.5638   0.4615 14.61350043234519
CZ-4B R/B               
1 27432U 02024C   25198.17305681  .00000012  00000+0  29625-4 0  9992
2 27432  98.9215 247.2614 0049637 332.6588  94.1945 14.14491286195944
MIDORI II (ADEOS-II)    
1 27597U 02056A   25198.49920700  .00000197  00000+0  95612-4 0  9992
2 27597  98.7392 150.8976 0001142  32.4303 327.6948 14.29068325176709
H-2A R/B                
1 27601U 02056E   25198.51547441  .00000194  00000+0  82495-4 0  9990
2 27601  98.2809 163.3899 0071190 141.7154 328.8359 14.33525320180414
CZ-4B R/B               
1 28059U 03049C   25198.51615941  .00000224  00000+0  63353-4 0  9998
2 28059  98.6611 179.6118 0047483 228.5500 131.1613 14.54707759152405
CZ-2C R/B               
1 28222U 04012C   25198.09718905  .00018620  00000+0  38632-3 0  9998
2 28222  97.7642 239.5806 0024337  90.4560 269.9476 15.45444793167709
